OBJECT_NAME,OBJECT_ID,EPOCH,MEAN_MOTION,ECCENTRICITY,INCLINATION,RA_OF_ASC_NODE,ARG_OF_PERICENTER,MEAN_ANOMALY,EPHEMERIS_TYPE,CLASSIFICATION_TYPE,NORAD_CAT_ID,ELEMENT_SET_NO,REV_AT_EPOCH,BSTAR,MEAN_MOTION_DOT,MEAN_MOTION_DDOT
TIANMU-1 20,2023-208B,2026-07-10T13:30:46.617120,15.33118707,.000595,97.4458,308.6495,230.7210,129.3505,0,U,58661,999,14100,.17048932E-3,.5376E-4,0
TIANMU-1 21,2023-208C,2026-07-10T13:56:29.110272,15.35497323,.00062656,97.4517,311.4506,222.0997,137.9766,0,U,58662,999,14115,.18850348E-3,.6423E-4,0
TIANMU-1 22,2023-208D,2026-07-10T14:21:56.865312,15.31385661,.00024073,97.4512,307.9414,241.5433,118.5566,0,U,58663,999,14091,.16745126E-3,.4997E-4,0
TIANMU-1 15,2024-004A,2026-07-10T15:00:33.552576,15.26884423,.0005786,97.4670,17.8163,248.1890,111.8734,0,U,58700,999,13935,.13484725E-3,.3487E-4,0
TIANMU-1 16,2024-004B,2026-07-10T14:45:50.142816,15.26986981,.00043086,97.4618,17.0252,267.6721,92.4025,0,U,58701,999,13935,.1308904E-3,.3392E-4,0
TIANMU-1 17,2024-004C,2026-07-10T14:24:55.276128,15.26985644,.00038201,97.4645,17.5042,274.9491,85.1311,0,U,58702,999,13934,.1489667E-3,.3871E-4,0
TIANMU-1 18,2024-004D,2026-07-10T13:50:07.255968,15.26901073,.00034822,97.4663,17.7423,247.1404,112.9467,0,U,58703,999,13934,.12954826E-3,.3348E-4,0
INSAT-3DS,2024-033A,2026-07-10T10:34:21.684000,1.00271597,.00010778,0.1046,265.7903,223.3866,39.8494,0,U,58990,999,4730,0,-.146E-5,0
METEOR-M2 4,2024-039A,2026-07-10T14:34:31.463040,14.22431858,.0008223,98.7022,150.6125,100.1617,260.0489,0,U,59051,999,12259,.16677727E-4,-.7E-7,0
GOES 19,2024-119A,2026-07-10T03:52:54.877728,1.00270419,.00005878,0.0073,145.0944,63.0042,63.0239,0,U,60133,999,719,0,-.237E-5,0
MTG-S1,2025-143A,2026-07-10T13:36:14.190624,1.00272704,.00034506,0.5872,343.9313,262.0823,246.0994,0,U,64723,999,365,0,.2E-7,0
METOP-SGA1,2025-172A,2026-07-10T02:43:11.540064,14.19818630,.00073388,98.6632,250.3563,347.5766,12.5229,0,U,65159,999,4704,.22112683E-4,.4E-7,0
FENGYUN 3H,2025-219A,2026-07-09T14:09:54.747936,14.19924262,.00012699,98.6772,130.9242,63.2177,296.9130,0,U,65815,999,4056,.30852092E-4,.22E-6,0
