TIANMU-1 20             
1 58661U 23208B   26191.56303955  .00005376  00000+0  17049-3 0  9990
2 58661  97.4458 308.6495 0005950 230.7210 129.3505 15.33118707141001
TIANMU-1 21             
1 58662U 23208C   26191.58089248  .00006423  00000+0  18850-3 0  9994
2 58662  97.4517 311.4506 0006265 222.0997 137.9766 15.35497323141155
TIANMU-1 22             
1 58663U 23208D   26191.59857483  .00004997  00000+0  16745-3 0  9995
2 58663  97.4512 307.9414 0002407 241.5433 118.5566 15.31385661140917
TIANMU-1 15             
1 58700U 24004A   26191.62538834  .00003487  00000+0  13485-3 0  9993
2 58700  97.4670  17.8163 0005786 248.1890 111.8734 15.26884423139358
TIANMU-1 16             
1 58701U 24004B   26191.61516369  .00003392  00000+0  13089-3 0  9997
2 58701  97.4618  17.0252 0004308 267.6721  92.4025 15.26986981139359
TIANMU-1 17             
1 58702U 24004C   26191.60063977  .00003871  00000+0  14897-3 0  9999
2 58702  97.4645  17.5042 0003820 274.9491  85.1311 15.26985644139346
TIANMU-1 18             
1 58703U 24004D   26191.57647287  .00003348  00000+0  12955-3 0  9990
2 58703  97.4663  17.7423 0003482 247.1404 112.9467 15.26901073139347
INSAT-3DS               
1 58990U 24033A   26191.44052875 -.00000146  00000+0  00000+0 0  9997
2 58990   0.1046 265.7903 0001077 223.3866  39.8494  1.00271597 47304
METEOR-M2 4             
1 59051U 24039A   26191.60730860 -.00000007  00000+0  16678-4 0  9996
2 59051  98.7022 150.6125 0008223 100.1617 260.0489 14.22431858122597
GOES 19                 
1 60133U 24119A   26191.16174627 -.00000237  00000+0  00000+0 0  9994
2 60133   0.0073 145.0944 0000587  63.0042  63.0239  1.00270419  7191
MTG-S1                  
1 64723U 25143A   26191.56683091  .00000002  00000+0  00000+0 0  9994
2 64723   0.5872 343.9313 0003450 262.0823 246.0994  1.00272704  3658
METOP-SGA1              
1 65159U 25172A   26191.11332801  .00000004  00000+0  22113-4 0  9997
2 65159  98.6632 250.3563 0007338 347.5766  12.5229 14.19818630 47042
FENGYUN 3H              
1 65815U 25219A   26190.59021699  .00000022  00000+0  30852-4 0  9998
2 65815  98.6772 130.9242 0001269  63.2177 296.9130 14.19924262 40566
